{"fetched_at":"2026-07-21T07:07:01.515Z","source":"https://celestrak.org/NORAD/elements/gp.php?NAME=LEGION&FORMAT=JSON","constellation":"maxar-legion","records":[{"OBJECT_NAME":"LEGION 1","OBJECT_ID":"2024-081A","EPOCH":"2026-07-20T20:56:08.436768","CLASSIFICATION_TYPE":"U","MEAN_MOTION":15.16866999,"ECCENTRICITY":0.00078526,"INCLINATION":97.5007,"RA_OF_ASC_NODE":279.3723,"ARG_OF_PERICENTER":246.1082,"MEAN_ANOMALY":113.9329,"EPHEMERIS_TYPE":0,"NORAD_CAT_ID":59625,"ELEMENT_SET_NO":999,"REV_AT_EPOCH":12264,"BSTAR":0.00011351318,"MEAN_MOTION_DOT":0.00002168,"MEAN_MOTION_DDOT":0},{"OBJECT_NAME":"LEGION 2","OBJECT_ID":"2024-081B","EPOCH":"2026-07-20T21:40:00.794208","CLASSIFICATION_TYPE":"U","MEAN_MOTION":15.16846897,"ECCENTRICITY":0.00106631,"INCLINATION":97.5007,"RA_OF_ASC_NODE":279.499,"ARG_OF_PERICENTER":211.9392,"MEAN_ANOMALY":148.1196,"EPHEMERIS_TYPE":0,"NORAD_CAT_ID":59626,"ELEMENT_SET_NO":999,"REV_AT_EPOCH":12265,"BSTAR":0.00011542445,"MEAN_MOTION_DOT":0.00002205,"MEAN_MOTION_DDOT":0},{"OBJECT_NAME":"LEGION 3","OBJECT_ID":"2024-146A","EPOCH":"2026-07-20T20:56:59.792064","CLASSIFICATION_TYPE":"U","MEAN_MOTION":15.15675485,"ECCENTRICITY":0.00076397,"INCLINATION":45.0013,"RA_OF_ASC_NODE":209.9548,"ARG_OF_PERICENTER":5.2969,"MEAN_ANOMALY":354.7989,"EPHEMERIS_TYPE":0,"NORAD_CAT_ID":60452,"ELEMENT_SET_NO":999,"REV_AT_EPOCH":10713,"BSTAR":0.000099127444,"MEAN_MOTION_DOT":0.00001655,"MEAN_MOTION_DDOT":0},{"OBJECT_NAME":"LEGION 4","OBJECT_ID":"2024-146B","EPOCH":"2026-07-20T14:36:50.157504","CLASSIFICATION_TYPE":"U","MEAN_MOTION":15.15703469,"ECCENTRICITY":0.00093368,"INCLINATION":45.0021,"RA_OF_ASC_NODE":303.2373,"ARG_OF_PERICENTER":147.1021,"MEAN_ANOMALY":213.044,"EPHEMERIS_TYPE":0,"NORAD_CAT_ID":60453,"ELEMENT_SET_NO":999,"REV_AT_EPOCH":10594,"BSTAR":0.00013089519,"MEAN_MOTION_DOT":0.00002273,"MEAN_MOTION_DDOT":0},{"OBJECT_NAME":"LEGION 5","OBJECT_ID":"2025-025A","EPOCH":"2026-07-20T05:07:23.624832","CLASSIFICATION_TYPE":"U","MEAN_MOTION":15.15720625,"ECCENTRICITY":0.00078311,"INCLINATION":45.0013,"RA_OF_ASC_NODE":124.3146,"ARG_OF_PERICENTER":315.0953,"MEAN_ANOMALY":44.9291,"EPHEMERIS_TYPE":0,"NORAD_CAT_ID":62900,"ELEMENT_SET_NO":999,"REV_AT_EPOCH":7950,"BSTAR":0.0001093472,"MEAN_MOTION_DOT":0.00001856,"MEAN_MOTION_DDOT":0},{"OBJECT_NAME":"LEGION 6","OBJECT_ID":"2025-025B","EPOCH":"2026-07-20T22:30:09.707040","CLASSIFICATION_TYPE":"U","MEAN_MOTION":15.15714741,"ECCENTRICITY":0.00106122,"INCLINATION":45.0022,"RA_OF_ASC_NODE":29.58,"ARG_OF_PERICENTER":305.7491,"MEAN_ANOMALY":54.24,"EPHEMERIS_TYPE":0,"NORAD_CAT_ID":62901,"ELEMENT_SET_NO":999,"REV_AT_EPOCH":8075,"BSTAR":0.00014353246,"MEAN_MOTION_DOT":0.0000252,"MEAN_MOTION_DDOT":0}]}
